[{"OBJECT_NAME":"YAOGAN-31 03A","OBJECT_ID":"2021-014A","EPOCH":"2026-03-10T00:24:06.247008","MEAN_MOTION":13.45441662,"ECCENTRICITY":0.01684055,"INCLINATION":63.4026,"RA_OF_ASC_NODE":92.704,"ARG_OF_PERICENTER":0.2198,"MEAN_ANOMALY":359.8873,"EPHEMERIS_TYPE":0,"CLASSIFICATION_TYPE":"U","NORAD_CAT_ID":47691,"ELEMENT_SET_NO":999,"REV_AT_EPOCH":24743,"BSTAR":0.00052010805,"MEAN_MOTION_DOT":2.46e-6,"MEAN_MOTION_DDOT":0},{"OBJECT_NAME":"ONEWEB-0387","OBJECT_ID":"2021-090AL","EPOCH":"2026-03-09T16:05:48.490368","MEAN_MOTION":13.20771137,"ECCENTRICITY":0.00015871,"INCLINATION":87.9161,"RA_OF_ASC_NODE":294.3326,"ARG_OF_PERICENTER":72.7354,"MEAN_ANOMALY":287.3953,"EPHEMERIS_TYPE":0,"CLASSIFICATION_TYPE":"U","NORAD_CAT_ID":49313,"ELEMENT_SET_NO":999,"REV_AT_EPOCH":21668,"BSTAR":-0.00067251148,"MEAN_MOTION_DOT":-2.6e-6,"MEAN_MOTION_DDOT":0}]
